Unnamed: 0,NORAD_CAT_ID,OBJECT_NAME,EPOCH,MEAN_MOTION,ECCENTRICITY,INCLINATION,RA_OF_ASC_NODE,ARG_OF_PERICENTER,MEAN_ANOMALY,BSTAR,MEAN_MOTION_DOT,MEAN_MOTION_DDOT,TLE_LINE1,TLE_LINE2,SEMIMAJOR_AXIS,PERIOD,APOGEE,PERIGEE,alltitude
2303886,48481,STARLINK-2706,2022-02-24 22:23:51.700128,15.06393805,0.0001766,53.0562,337.5737,60.5764,299.5401,7.0665e-05,7.71e-06,0,1 48481U 21040BF  22055.93323727  .00000771  00000-0  70665-4 0  9995,2 48481  53.0562 337.5737 0001766  60.5764 299.5401 15.06393805 44212,6925.368,95.593,548.456,546.01,547.5124868283965
2299304,48481,STARLINK-2706,2022-02-24 04:52:55.247808,15.06394502,0.0001737,53.0562,340.8495,61.2641,298.8523,0.00010204,1.238e-05,0,1 48481U 21040BF  22055.20341722  .00001238  00000-0  10204-3 0  9991,2 48481  53.0562 340.8495 0001737  61.2641 298.8523 15.06394502 44100,6925.365,95.592,548.433,546.027,547.5293475230231
2299303,48481,STARLINK-2706,2022-02-24 04:52:55.247808,15.06394502,0.0001737,53.0562,340.8495,61.2641,298.8523,0.00010204,1.238e-05,0,1 48481U 21040BF  22055.20341722  .00001238  00000-0  10204-3 0  9991,2 48481  53.0562 340.8495 0001737  61.2641 298.8523 15.06394502 45381,6925.365,95.592,548.433,546.027,547.5293475230231
2296540,48481,STARLINK-2706,2022-02-23 14:33:03.898368,15.0639421,0.0001821,53.0561,343.53,60.5555,299.5615,-8.484e-06,-4.08e-06,0,1 48481U 21040BF  22054.60629512 -.00000408  00000-0 -84840-5 0  9999,2 48481  53.0561 343.5300 0001821  60.5555 299.5615 15.06394210 44010,6925.366,95.593,548.492,545.97,547.4936283340021
2295472,48481,STARLINK-2706,2022-02-23 12:57:31.817376,15.06388476,0.0001803,53.0561,343.8277,60.6918,299.425,1.7013e-05,-2.8e-07,0,1 48481U 21040BF  22054.53995159 -.00000028  00000-0  17013-4 0  9998,2 48481  53.0561 343.8277 0001803  60.6918 299.4250 15.06388476 44000,6925.384,95.593,548.498,546.0,547.5193009650037
2293521,48481,STARLINK-2706,2022-02-23 01:48:44.887392,15.0639533,0.0001791,53.0559,345.9124,60.15,299.9667,-5.156e-05,-1.049e-05,0,1 48481U 21040BF  22054.07551953 -.00001049  00000-0 -51560-4 0  9997,2 48481  53.0559 345.9124 0001791  60.1500 299.9667 15.06395330 45217,6925.363,95.592,548.468,545.988,547.4926888791043
2291032,48481,STARLINK-2706,2022-02-22 14:39:57.921984,15.0639947,0.000175,53.056,347.9972,59.7512,300.365,6.1715e-05,6.38e-06,0,1 48481U 21040BF  22053.61108706  .00000638  00000-0  61715-4 0  9994,2 48481  53.0560 347.9972 0001750  59.7512 300.3650 15.06399470 43861,6925.35,95.592,548.427,546.003,547.4871450551738
2291031,48481,STARLINK-2706,2022-02-22 14:39:57.921984,15.0639947,0.000175,53.056,347.9972,59.7512,300.365,6.1715e-05,6.38e-06,0,1 48481U 21040BF  22053.61108706  .00000638  00000-0  61715-4 0  9994,2 48481  53.0560 347.9972 0001750  59.7512 300.3650 15.06399470 45144,6925.35,95.592,548.427,546.003,547.4871450551738
2290078,48481,STARLINK-2706,2022-02-22 13:04:25.563648,15.06399426,0.0001746,53.056,348.2951,59.5827,300.5335,6.2962e-05,6.56e-06,0,1 48481U 21040BF  22053.54474032  .00000656  00000-0  62962-4 0  9999,2 48481  53.0560 348.2951 0001746  59.5827 300.5335 15.06399426 43856,6925.35,95.592,548.424,546.006,547.4828374617308
2287782,48481,STARLINK-2706,2022-02-22 01:55:39.663552,15.06387551,0.0001682,53.056,350.3798,59.6599,300.4556,4.8685e-05,4.43e-06,0,1 48481U 21040BF  22053.08032018  .00000443  00000-0  48685-4 0  9992,2 48481  53.0560 350.3798 0001682  59.6599 300.4556 15.06387551 45060,6925.387,95.593,548.417,546.087,547.5438475111044
2285147,48481,STARLINK-2706,2022-02-21 14:46:52.161600,15.06394808,0.000173,53.0554,352.4645,60.0978,300.0183,-0.00016223,-2.697e-05,0,1 48481U 21040BF  22052.61588150 -.00002697  00000-0 -16223-3 0  9990,2 48481  53.0554 352.4645 0001730  60.0978 300.0183 15.06394808 43713,6925.364,95.592,548.428,546.031,547.5087609007289
2285146,48481,STARLINK-2706,2022-02-21 14:46:52.161600,15.06394808,0.000173,53.0554,352.4645,60.0978,300.0183,-0.00016223,-2.697e-05,0,1 48481U 21040BF  22052.61588150 -.00002697  00000-0 -16223-3 0  9990,2 48481  53.0554 352.4645 0001730  60.0978 300.0183 15.06394808 44994,6925.364,95.592,548.428,546.031,547.5087609007289
2283991,48481,STARLINK-2706,2022-02-21 05:13:37.570944,15.06402737,0.0001675,53.0561,354.2516,58.7139,301.4014,0.00014947,1.946e-05,0,1 48481U 21040BF  22052.21779596  .00001946  00000-0  14947-3 0  9997,2 48481  53.0561 354.2516 0001675  58.7139 301.4014 15.06402737 44933,6925.34,95.592,548.365,546.045,547.482630488194
2283923,48481,STARLINK-2706,2022-02-21 03:38:04.643232,15.06410789,0.0001679,53.0561,354.5492,58.8389,301.2765,0.00015545,2.035e-05,0,1 48481U 21040BF  22052.15144263  .00002035  00000-0  15545-3 0  9992,2 48481  53.0561 354.5492 0001679  58.8389 301.2765 15.06410789 44927,6925.315,95.591,548.343,546.018,547.4592322623442
2282244,48481,STARLINK-2706,2022-02-20 19:40:22.650240,15.06432279,0.0001943,53.0559,356.0386,57.6577,302.46,-0.00026102,-4.171e-05,0,1 48481U 21040BF  22051.81970660 -.00004171  00000-0 -26102-3 0  9998,2 48481  53.0559 356.0386 0001943  57.6577 302.4600 15.06432279 43594,6925.25,95.59,548.46,545.769,547.2750459619665
2282243,48481,STARLINK-2706,2022-02-20 19:40:22.650240,15.06432279,0.0001943,53.0559,356.0386,57.6577,302.46,-0.00026102,-4.171e-05,0,1 48481U 21040BF  22051.81970660 -.00004171  00000-0 -26102-3 0  9998,2 48481  53.0559 356.0386 0001943  57.6577 302.4600 15.06432279 44876,6925.25,95.59,548.46,545.769,547.2750459619665
2280228,48481,STARLINK-2706,2022-02-20 13:18:14.368320,15.06406674,0.0001658,53.056,357.2302,57.6219,302.493,3.565e-05,2.5e-06,0,1 48481U 21040BF  22051.55432913  .00000250  00000-0  35650-4 0  9994,2 48481  53.0560 357.2302 0001658  57.6219 302.4930 15.06406674 44837,6925.328,95.592,548.341,546.045,547.4540420147733
2276252,48481,STARLINK-2706,2022-02-19 19:47:18.834720,15.06394977,0.0001985,53.0558,0.5067,60.06,300.0585,3.3848e-06,-2.31e-06,0,1 48481U 21040BF  22050.82452355 -.00000231  00000-0  33848-5 0  9993,2 48481  53.0558   0.5067 0001985  60.0600 300.0585 15.06394977 43443,6925.364,95.592,548.604,545.854,547.4244917356729
2276250,48481,STARLINK-2706,2022-02-19 19:47:18.834720,15.06394977,0.0001985,53.0558,0.5067,60.06,300.0585,3.3848e-06,-2.31e-06,0,1 48481U 21040BF  22050.82452355 -.00000231  00000-0  33848-5 0  9993,2 48481  53.0558   0.5067 0001985  60.0600 300.0585 15.06394977 44725,6925.364,95.592,548.604,545.854,547.4244917356729
2274677,48481,STARLINK-2706,2022-02-19 13:25:09.356448,15.06393763,0.0001699,53.0562,1.6966,58.7332,301.3824,-3.6142e-05,-8.2e-06,0,1 48481U 21040BF  22050.55913607 -.00000820  00000-0 -36142-4 0  9999,2 48481  53.0562   1.6966 0001699  58.7332 301.3824 15.06393763 43404,6925.368,95.593,548.409,546.056,547.5001748627158
2272524,48481,STARLINK-2706,2022-02-19 03:51:54.736416,15.06401159,0.0001853,53.0564,3.4841,59.985,300.1322,2.6951e-05,1.2e-06,0,1 48481U 21040BF  22050.16105019  .00000120  00000-0  26951-4 0  9994,2 48481  53.0564   3.4841 0001853  59.9850 300.1322 15.06401159 44622,6925.345,95.592,548.493,545.927,547.449104122598
2271415,48481,STARLINK-2706,2022-02-18 21:29:44.827872,15.06407312,0.000169,53.0565,4.6768,59.8406,300.275,9.467e-05,1.129e-05,0,1 48481U 21040BF  22049.89565773  .00001129  00000-0  94670-4 0  9992,2 48481  53.0565   4.6768 0001690  59.8406 300.2750 15.06407312 43306,6925.326,95.592,548.362,546.021,547.4849938292132
2269925,48481,STARLINK-2706,2022-02-18 16:43:07.662144,15.06412094,0.0001747,53.0567,5.5709,59.9224,300.1938,0.0002476,3.409e-05,0,1 48481U 21040BF  22049.69661646  .00003409  00000-0  24760-3 0  9991,2 48481  53.0567   5.5709 0001747  59.9224 300.1938 15.06412094 44553,6925.311,95.591,548.386,545.967,547.450703597132
2268978,48481,STARLINK-2706,2022-02-18 13:32:03.724800,15.06406613,0.0001738,53.058,6.165,59.9082,300.2079,0.00020417,2.761e-05,0,1 48481U 21040BF  22049.56392445  .00002761  00000-0  20417-3 0  9990,2 48481  53.0580   6.1650 0001738  59.9082 300.2079 15.06406613 43255,6925.328,95.592,548.397,545.99,547.4659687288714
2265125,48481,STARLINK-2706,2022-02-17 20:01:07.814208,15.06391473,0.0001728,53.0578,9.4409,61.509,298.6073,0.00013282,1.697e-05,0,1 48481U 21040BF  22048.83411822  .00001697  00000-0  13282-3 0  9999,2 48481  53.0578   9.4409 0001728  61.5090 298.6073 15.06391473 43146,6925.375,95.593,548.436,546.043,547.5506698185128
2264718,48481,STARLINK-2706,2022-02-17 18:25:35.401440,15.06392083,0.0001737,53.0577,9.7387,61.9364,298.1801,0.00014004,1.804e-05,0,1 48481U 21040BF  22048.76777085  .00001804  00000-0  14004-3 0  9990,2 48481  53.0577   9.7387 0001737  61.9364 298.1801 15.06392083 44414,6925.373,95.593,548.441,546.035,547.5505120056982
2261788,48481,STARLINK-2706,2022-02-17 07:16:48.101664,15.06409243,0.0001765,53.0579,11.8238,61.4478,298.6689,5.147e-05,4.85e-06,0,1 48481U 21040BF  22048.30333451  .00000485  00000-0  51470-4 0  9998,2 48481  53.0579  11.8238 0001765  61.4478 298.6689 15.06409243 43063,6925.32,95.592,548.408,545.963,547.4773144617658
2261354,48481,STARLINK-2706,2022-02-17 04:05:43.456704,15.06408509,0.0001768,53.058,12.4195,61.4723,298.6444,6.9445e-05,7.53e-06,0,1 48481U 21040BF  22048.17064186  .00000753  00000-0  69445-4 0  9998,2 48481  53.0580  12.4195 0001768  61.4723 298.6444 15.06408509 44323,6925.322,95.592,548.412,545.963,547.4817886008897
2258690,48481,STARLINK-2706,2022-02-16 15:21:25.194816,15.06398106,0.0001755,53.0575,14.8022,60.9386,299.1778,3.188e-05,1.93e-06,0,1 48481U 21040BF  22047.63987494  .00000193  00000-0  31880-4 0  9994,2 48481  53.0575  14.8022 0001755  60.9386 299.1778 15.06398106 42962,6925.354,95.592,548.435,546.004,547.5059977524202
2258689,48481,STARLINK-2706,2022-02-16 15:21:25.194816,15.06398106,0.0001755,53.0575,14.8022,60.9386,299.1778,3.188e-05,1.93e-06,0,1 48481U 21040BF  22047.63987494  .00000193  00000-0  31880-4 0  9994,2 48481  53.0575  14.8022 0001755  60.9386 299.1778 15.06398106 44245,6925.354,95.592,548.435,546.004,547.5059977524202
